OBJECT_NAME,OBJECT_ID,EPOCH,MEAN_MOTION,ECCENTRICITY,INCLINATION,RA_OF_ASC_NODE,ARG_OF_PERICENTER,MEAN_ANOMALY,EPHEMERIS_TYPE,CLASSIFICATION_TYPE,NORAD_CAT_ID,ELEMENT_SET_NO,REV_AT_EPOCH,BSTAR,MEAN_MOTION_DOT,MEAN_MOTION_DDOT
NEPT-1,2021-059CR,2024-08-13T17:26:01.047264,16.20894663,.0012334,97.6159,28.5670,260.6085,99.3809,0,U,48966,999,17484,.15319E-2,.3128218E-1,.25714E-5
ONEWEB-0249,2021-060A,2024-08-14T14:51:18.583776,13.16593455,.0001847,87.9148,2.4869,97.5453,262.5888,0,U,48967,999,15124,.26271E-3,.113E-5,0
ONEWEB-0250,2021-060B,2024-08-14T14:29:01.789152,13.25518271,.0001603,87.9147,2.4281,109.9104,250.2204,0,U,48968,999,15123,.26083E-3,.127E-5,0
ONEWEB-0253,2021-060E,2024-08-14T15:20:56.611104,13.16593796,.0001485,87.9144,2.4868,98.3555,261.7745,0,U,48971,999,15122,.2063E-3,.92E-6,0
ONEWEB-0254,2021-060F,2024-08-14T10:06:18.904032,13.16593656,.0001489,87.9146,2.5087,99.0005,261.1295,0,U,48972,999,15119,.1615E-3,.75E-6,0
ONEWEB-0255,2021-060G,2024-08-14T14:39:54.310464,13.16596907,.0001839,87.9147,2.5055,99.0027,261.1312,0,U,48973,999,15129,.47891E-3,.196E-5,0
ONEWEB-0256,2021-060H,2024-08-14T15:17:31.901856,13.16595336,.0001863,87.9150,2.5054,91.8585,268.2759,0,U,48974,999,15126,.16908E-3,.77E-6,0
ONEWEB-0257,2021-060J,2024-08-14T08:46:31.442880,13.16595615,.0001694,87.9145,2.5285,92.5255,267.6070,0,U,48975,999,15118,.39157E-3,.163E-5,0
ONEWEB-0258,2021-060K,2024-08-14T10:38:14.914752,13.16594954,.0001795,87.9146,2.5415,98.9659,261.1675,0,U,48976,999,15120,.26387E-3,.114E-5,0
ONEWEB-0259,2021-060L,2024-08-14T10:29:07.001376,13.16595176,.0001695,87.9145,2.5273,105.6769,254.4549,0,U,48977,999,15123,.17837E-3,.81E-6,0
ONEWEB-0261,2021-060N,2024-08-14T15:00:25.660800,13.16593523,.0001192,87.9151,2.5140,93.5383,266.5884,0,U,48979,999,15129,.21138E-3,.94E-6,0
ONEWEB-0262,2021-060P,2024-08-14T14:33:03.474144,13.16593341,.000158,87.9149,2.4805,111.4518,248.6781,0,U,48980,999,15125,.46578E-3,.191E-5,0
ONEWEB-0263,2021-060Q,2024-08-14T15:18:40.278816,13.16593687,.0001345,87.9149,2.4921,104.0970,256.0310,0,U,48981,999,15122,.4548E-4,.3E-6,0
ONEWEB-0264,2021-060R,2024-08-14T08:54:30.244032,13.16594203,.0001729,87.9148,2.5561,96.8831,263.2496,0,U,48982,999,15119,.51446E-3,.21E-5,0
ONEWEB-0266,2021-060T,2024-08-14T14:53:35.726496,13.16594250,.0001871,87.9148,2.4825,99.3380,260.7963,0,U,48984,999,15121,.24075E-3,.105E-5,0
ONEWEB-0267,2021-060U,2024-08-14T15:09:32.956416,13.16593859,.0001423,87.9146,2.4819,92.8898,267.2395,0,U,48985,999,15122,.18E-3,.82E-6,0
ONEWEB-0268,2021-060V,2024-08-14T10:45:04.171680,13.16593985,.0001772,87.9147,2.5248,90.5911,269.5423,0,U,48986,999,15146,.20772E-3,.92E-6,0
ONEWEB-0272,2021-060Z,2024-08-14T10:56:28.906368,13.16596436,.0001505,87.9149,2.5374,95.5287,264.6016,0,U,48990,999,15122,.16903E-3,.77E-6,0
ONEWEB-0273,2021-060AA,2024-08-14T15:07:15.782592,13.16593223,.0001687,87.9146,2.4891,102.0980,258.0340,0,U,48991,999,15122,.20873E-3,.93E-6,0
ONEWEB-0275,2021-060AC,2024-08-14T09:59:30.068736,13.16578988,.0001645,87.9143,2.5272,102.6343,257.4971,0,U,48993,999,15116,-.47967E-2,-.182E-4,0
ONEWEB-0276,2021-060AD,2024-08-14T10:47:21.859584,13.16594146,.0001546,87.9147,2.5169,103.0602,257.0702,0,U,48994,999,15118,.24483E-3,.106E-5,0
ONEWEB-0277,2021-060AE,2024-08-14T14:44:28.054176,13.16593894,.0001248,87.9150,2.5221,98.9287,261.1985,0,U,48995,999,15119,.14692E-3,.69E-6,0
ONEWEB-0278,2021-060AF,2024-08-14T14:30:47.293920,13.16593501,.0001986,87.9150,2.4831,105.3692,254.7658,0,U,48996,999,15132,.55085E-3,.223E-5,0
ONEWEB-0279,2021-060AG,2024-08-14T14:42:11.575872,13.16595246,.000136,87.9149,2.4788,94.9663,265.1623,0,U,48997,999,15125,.41416E-3,.171E-5,0
ONEWEB-0280,2021-060AH,2024-08-14T15:02:41.851392,13.16601831,.0001699,87.9153,2.4781,106.0609,254.0709,0,U,48998,999,15119,.26825E-2,.1039E-4,0
