NEPT-1                  
1 48966U 21059CR  24226.72640101  .03128218  25714-5  15319-2 0  9997
2 48966  97.6159  28.5670 0012334 260.6085  99.3809 16.20894663174847
ONEWEB-0249             
1 48967U 21060A   24227.61896509  .00000113  00000+0  26271-3 0  9999
2 48967  87.9148   2.4869 0001847  97.5453 262.5888 13.16593455151249
ONEWEB-0250             
1 48968U 21060B   24227.60349293  .00000127  00000+0  26083-3 0  9998
2 48968  87.9147   2.4281 0001603 109.9104 250.2204 13.25518271151236
ONEWEB-0253             
1 48971U 21060E   24227.63954411  .00000092  00000+0  20630-3 0  9992
2 48971  87.9144   2.4868 0001485  98.3555 261.7745 13.16593796151228
ONEWEB-0254             
1 48972U 21060F   24227.42105213  .00000075  00000+0  16150-3 0  9991
2 48972  87.9146   2.5087 0001489  99.0005 261.1295 13.16593656151192
ONEWEB-0255             
1 48973U 21060G   24227.61104526  .00000196  00000+0  47891-3 0  9999
2 48973  87.9147   2.5055 0001839  99.0027 261.1312 13.16596907151295
ONEWEB-0256             
1 48974U 21060H   24227.63717479  .00000077  00000+0  16908-3 0  9992
2 48974  87.9150   2.5054 0001863  91.8585 268.2759 13.16595336151260
ONEWEB-0257             
1 48975U 21060J   24227.36564170  .00000163  00000+0  39157-3 0  9998
2 48975  87.9145   2.5285 0001694  92.5255 267.6070 13.16595615151185
ONEWEB-0258             
1 48976U 21060K   24227.44322818  .00000114  00000+0  26387-3 0  9996
2 48976  87.9146   2.5415 0001795  98.9659 261.1675 13.16594954151200
ONEWEB-0259             
1 48977U 21060L   24227.43688659  .00000081  00000+0  17837-3 0  9997
2 48977  87.9145   2.5273 0001695 105.6769 254.4549 13.16595176151234
ONEWEB-0261             
1 48979U 21060N   24227.62529700  .00000094  00000+0  21138-3 0  9994
2 48979  87.9151   2.5140 0001192  93.5383 266.5884 13.16593523151291
ONEWEB-0262             
1 48980U 21060P   24227.60629021  .00000191  00000+0  46578-3 0  9994
2 48980  87.9149   2.4805 0001580 111.4518 248.6781 13.16593341151259
ONEWEB-0263             
1 48981U 21060Q   24227.63796619  .00000030  00000+0  45480-4 0  9990
2 48981  87.9149   2.4921 0001345 104.0970 256.0310 13.16593687151229
ONEWEB-0264             
1 48982U 21060R   24227.37118338  .00000210  00000+0  51446-3 0  9996
2 48982  87.9148   2.5561 0001729  96.8831 263.2496 13.16594203151196
ONEWEB-0266             
1 48984U 21060T   24227.62055239  .00000105  00000+0  24075-3 0  9997
2 48984  87.9148   2.4825 0001871  99.3380 260.7963 13.16594250151211
ONEWEB-0267             
1 48985U 21060U   24227.63163144  .00000082  00000+0  18000-3 0  9999
2 48985  87.9146   2.4819 0001423  92.8898 267.2395 13.16593859151224
ONEWEB-0268             
1 48986U 21060V   24227.44796495  .00000092  00000+0  20772-3 0  9990
2 48986  87.9147   2.5248 0001772  90.5911 269.5423 13.16593985151464
ONEWEB-0272             
1 48990U 21060Z   24227.45589012  .00000077  00000+0  16903-3 0  9995
2 48990  87.9149   2.5374 0001505  95.5287 264.6016 13.16596436151228
ONEWEB-0273             
1 48991U 21060AA  24227.63004378  .00000093  00000+0  20873-3 0  9992
2 48991  87.9146   2.4891 0001687 102.0980 258.0340 13.16593223151222
ONEWEB-0275             
1 48993U 21060AC  24227.41632024 -.00001820  00000+0 -47967-2 0  9998
2 48993  87.9143   2.5272 0001645 102.6343 257.4971 13.16578988151165
ONEWEB-0276             
1 48994U 21060AD  24227.44955856  .00000106  00000+0  24483-3 0  9996
2 48994  87.9147   2.5169 0001546 103.0602 257.0702 13.16594146151182
ONEWEB-0277             
1 48995U 21060AE  24227.61421359  .00000069  00000+0  14692-3 0  9991
2 48995  87.9150   2.5221 0001248  98.9287 261.1985 13.16593894151195
ONEWEB-0278             
1 48996U 21060AF  24227.60471405  .00000223  00000+0  55085-3 0  9991
2 48996  87.9150   2.4831 0001986 105.3692 254.7658 13.16593501151329
ONEWEB-0279             
1 48997U 21060AG  24227.61263398  .00000171  00000+0  41416-3 0  9998
2 48997  87.9149   2.4788 0001360  94.9663 265.1623 13.16595246151254
ONEWEB-0280             
1 48998U 21060AH  24227.62687328  .00001039  00000+0  26825-2 0  9993
2 48998  87.9153   2.4781 0001699 106.0609 254.0709 13.16601831151196
